start=new Date('2021-12-04T00:00:00.000Z').valueOf();
sats=[{"ELEMENT_SET_NO":"999","CENTER_NAME":"EARTH","OBJECT_ID":"2020-025M","SITE":"AFETR","NORAD_CAT_ID":"45542","MEAN_ANOMALY":"290.3800","ARG_OF_PERICENTER":"69.7405","RA_OF_ASC_NODE":"256.6109","EPOCH":"2021-12-03T14:42:49.413024","DECAY_DATE":null,"REV_AT_EPOCH":"9040","TLE_LINE1":"1 45542U 20025M   21337.61307191 -.00000001  00000-0  18866-4 0  9998","APOAPSIS":"548.645","CLASSIFICATION_TYPE":"U","RCS_SIZE":"LARGE","LAUNCH_DATE":"2020-04-22","PERIAPSIS":"545.857","MEAN_MOTION_DOT":"-0.00000001","BSTAR":"0.00001886600000","FILE":"3231910","ECCENTRICITY":"0.00020130","MEAN_MOTION":"15.06387870","MEAN_ELEMENT_THEORY":"SGP4","PERIOD":"95.593","TIME_SYSTEM":"UTC","OBJECT_NAME":"STARLINK-1371","EPHEMERIS_TYPE":"0","COUNTRY_CODE":"US","TLE_LINE2":"2 45542  53.0543 256.6109 0002013  69.7405 290.3800 15.06387870 90408","GP_ID":"191035797","SEMIMAJOR_AXIS":"6925.386","OBJECT_TYPE":"PAYLOAD","INCLINATION":"53.0543","MEAN_MOTION_DDOT":"0.0000000000000","REF_FRAME":"TEME"},{"MEAN_MOTION_DDOT":"0.0000000000000","REF_FRAME":"TEME","SEMIMAJOR_AXIS":"6925.384","OBJECT_TYPE":"PAYLOAD","INCLINATION":"53.0534","OBJECT_NAME":"STARLINK-1372","EPHEMERIS_TYPE":"0","COUNTRY_CODE":"US","TLE_LINE2":"2 45543  53.0534 257.0320 0002151  57.9446 302.1751 15.06388273 89487","GP_ID":"191008594","MEAN_ELEMENT_THEORY":"SGP4","PERIOD":"95.593","TIME_SYSTEM":"UTC","ECCENTRICITY":"0.00021510","MEAN_MOTION":"15.06388273","APOAPSIS":"548.739","CLASSIFICATION_TYPE":"U","RCS_SIZE":"LARGE","MEAN_MOTION_DOT":"0.00000594","LAUNCH_DATE":"2020-04-22","PERIAPSIS":"545.760","FILE":"3231740","BSTAR":"0.00005879800000","ARG_OF_PERICENTER":"57.9446","EPOCH":"2021-12-03T12:24:48.962304","RA_OF_ASC_NODE":"257.0320","DECAY_DATE":null,"REV_AT_EPOCH":"8948","TLE_LINE1":"1 45543U 20025N   21337.51723336  .00000594  00000-0  58798-4 0  9995","ELEMENT_SET_NO":"999","CENTER_NAME":"EARTH","OBJECT_ID":"2020-025N","SITE":"AFETR","NORAD_CAT_ID":"45543","MEAN_ANOMALY":"302.1751"},{"LAUNCH_DATE":"2020-04-22","MEAN_MOTION_DOT":"0.00001082","PERIAPSIS":"546.003","RCS_SIZE":"LARGE","CLASSIFICATION_TYPE":"U","APOAPSIS":"548.491","FILE":"3231740","BSTAR":"0.00009157800000","ECCENTRICITY":"0.00017970","MEAN_MOTION":"15.06389091","CENTER_NAME":"EARTH","ELEMENT_SET_NO":"999","MEAN_ANOMALY":"291.5929","NORAD_CAT_ID":"45544","SITE":"AFETR","OBJECT_ID":"2020-025P","RA_OF_ASC_NODE":"258.4527","EPOCH":"2021-12-03T04:53:39.183072","ARG_OF_PERICENTER":"68.5251","TLE_LINE1":"1 45544U 20025P   21337.20392573  .00001082  00000-0  91578-4 0  9993","REV_AT_EPOCH":"9034","DECAY_DATE":null,"SEMIMAJOR_AXIS":"6925.382","OBJECT_TYPE":"PAYLOAD","INCLINATION":"53.0537","REF_FRAME":"TEME","MEAN_MOTION_DDOT":"0.0000000000000","MEAN_ELEMENT_THEORY":"SGP4","TIME_SYSTEM":"UTC","PERIOD":"95.593","COUNTRY_CODE":"US","EPHEMERIS_TYPE":"0","OBJECT_NAME":"STARLINK-1373","GP_ID":"191008843","TLE_LINE2":"2 45544  53.0537 258.4527 0001797  68.5251 291.5929 15.06389091 90346"},{"SEMIMAJOR_AXIS":"6925.382","OBJECT_TYPE":"PAYLOAD","INCLINATION":"53.0535","MEAN_MOTION_DDOT":"0.0000000000000","REF_FRAME":"TEME","MEAN_ELEMENT_THEORY":"SGP4","TIME_SYSTEM":"UTC","PERIOD":"95.593","EPHEMERIS_TYPE":"0","OBJECT_NAME":"STARLINK-1374","COUNTRY_CODE":"US","TLE_LINE2":"2 45545  53.0535 255.9888 0002162  61.7635 298.3572 15.06389207 90400","GP_ID":"191037548","CLASSIFICATION_TYPE":"U","APOAPSIS":"548.744","LAUNCH_DATE":"2020-04-22","PERIAPSIS":"545.749","MEAN_MOTION_DOT":"-0.00001104","RCS_SIZE":"LARGE","BSTAR":"-0.00005523200000","FILE":"3231910","ECCENTRICITY":"0.00021620","MEAN_MOTION":"15.06389207","ELEMENT_SET_NO":"999","CENTER_NAME":"EARTH","OBJECT_ID":"2020-025Q","NORAD_CAT_ID":"45545","MEAN_ANOMALY":"298.3572","SITE":"AFETR","EPOCH":"2021-12-03T18:04:30.969408","RA_OF_ASC_NODE":"255.9888","ARG_OF_PERICENTER":"61.7635","REV_AT_EPOCH":"9040","DECAY_DATE":null,"TLE_LINE1":"1 45545U 20025Q   21337.75313622 -.00001104  00000-0 -55232-4 0  9996"},{"SITE":"AFETR","NORAD_CAT_ID":"45546","MEAN_ANOMALY":"296.8244","OBJECT_ID":"2020-025R","CENTER_NAME":"EARTH","ELEMENT_SET_NO":"999","TLE_LINE1":"1 45546U 20025R   21337.49880047 -.00000195  00000-0  57997-5 0  9997","DECAY_DATE":null,"REV_AT_EPOCH":"9038","ARG_OF_PERICENTER":"63.2969","RA_OF_ASC_NODE":"257.1196","EPOCH":"2021-12-03T11:58:16.360608","BSTAR":"0.00000579970000","FILE":"3231740","RCS_SIZE":"LARGE","PERIAPSIS":"545.723","LAUNCH_DATE":"2020-04-22","MEAN_MOTION_DOT":"-0.00000195","CLASSIFICATION_TYPE":"U","APOAPSIS":"548.759","MEAN_MOTION":"15.06390928","ECCENTRICITY":"0.00021920","PERIOD":"95.593","TIME_SYSTEM":"UTC","MEAN_ELEMENT_THEORY":"SGP4","GP_ID":"191009845","TLE_LINE2":"2 45546  53.0539 257.1196 0002192  63.2969 296.8244 15.06390928 90389","COUNTRY_CODE":"US","OBJECT_NAME":"STARLINK-1375","EPHEMERIS_TYPE":"0","OBJECT_TYPE":"PAYLOAD","INCLINATION":"53.0539","SEMIMAJOR_AXIS":"6925.376","REF_FRAME":"TEME","MEAN_MOTION_DDOT":"0.0000000000000"},{"BSTAR":"-0.00011431000000","FILE":"3231772","CLASSIFICATION_TYPE":"U","APOAPSIS":"548.743","RCS_SIZE":"LARGE","LAUNCH_DATE":"2020-04-22","MEAN_MOTION_DOT":"-0.00001983","PERIAPSIS":"545.761","MEAN_MOTION":"15.06387388","ECCENTRICITY":"0.00021530","OBJECT_ID":"2020-025S","SITE":"AFETR","MEAN_ANOMALY":"302.1966","NORAD_CAT_ID":"45547","ELEMENT_SET_NO":"999","CENTER_NAME":"EARTH","DECAY_DATE":null,"REV_AT_EPOCH":"8980","TLE_LINE1":"1 45547U 20025S   21337.49511544 -.00001983  00000-0 -11431-3 0  9999","ARG_OF_PERICENTER":"57.9232","EPOCH":"2021-12-03T11:52:57.974016","RA_OF_ASC_NODE":"257.1325","OBJECT_TYPE":"PAYLOAD","INCLINATION":"53.0530","SEMIMAJOR_AXIS":"6925.387","MEAN_MOTION_DDOT":"0.0000000000000","REF_FRAME":"TEME","TIME_SYSTEM":"UTC","PERIOD":"95.593","MEAN_ELEMENT_THEORY":"SGP4","TLE_LINE2":"2 45547  53.0530 257.1325 0002153  57.9232 302.1966 15.06387388 89808","GP_ID":"191013898","OBJECT_NAME":"STARLINK-1377","EPHEMERIS_TYPE":"0","COUNTRY_CODE":"US"},{"EPOCH":"2021-12-03T12:30:07.316064","RA_OF_ASC_NODE":"257.0283","ARG_OF_PERICENTER":"63.5246","REV_AT_EPOCH":"9038","DECAY_DATE":null,"TLE_LINE1":"1 45548U 20025T   21337.52091801  .00000366  00000-0  43508-4 0  9996","ELEMENT_SET_NO":"999","CENTER_NAME":"EARTH","OBJECT_ID":"2020-025T","MEAN_ANOMALY":"296.5921","NORAD_CAT_ID":"45548","SITE":"AFETR","ECCENTRICITY":"0.00017400","MEAN_MOTION":"15.06391134","APOAPSIS":"548.446","CLASSIFICATION_TYPE":"U","MEAN_MOTION_DOT":"0.00000366","LAUNCH_DATE":"2020-04-22","PERIAPSIS":"546.036","RCS_SIZE":"LARGE","FILE":"3231740","BSTAR":"0.00004350800000","EPHEMERIS_TYPE":"0","OBJECT_NAME":"STARLINK-1378","COUNTRY_CODE":"US","TLE_LINE2":"2 45548  53.0546 257.0283 0001740  63.5246 296.5921 15.06391134 90383","GP_ID":"191009343","MEAN_ELEMENT_THEORY":"SGP4","PERIOD":"95.593","TIME_SYSTEM":"UTC","MEAN_MOTION_DDOT":"0.0000000000000","REF_FRAME":"TEME","SEMIMAJOR_AXIS":"6925.376","INCLINATION":"53.0546","OBJECT_TYPE":"PAYLOAD"},{"CENTER_NAME":"EARTH","ELEMENT_SET_NO":"999","MEAN_ANOMALY":"302.5186","NORAD_CAT_ID":"45549","SITE":"AFETR","OBJECT_ID":"2020-025U","EPOCH":"2021-12-03T14:34:41.900160","RA_OF_ASC_NODE":"252.5884","ARG_OF_PERICENTER":"57.6004","TLE_LINE1":"1 45549U 20025U   21337.60742940  .00019234  00000-0  45049-3 0  9998","REV_AT_EPOCH":"9045","DECAY_DATE":null,"MEAN_MOTION_DOT":"0.00019234","LAUNCH_DATE":"2020-04-22","PERIAPSIS":"438.465","RCS_SIZE":"LARGE","APOAPSIS":"441.088","CLASSIFICATION_TYPE":"U","BSTAR":"0.00045049000000","FILE":"3231910","ECCENTRICITY":"0.00019230","MEAN_MOTION":"15.42146826","MEAN_ELEMENT_THEORY":"SGP4","PERIOD":"93.376","TIME_SYSTEM":"UTC","COUNTRY_CODE":"US","EPHEMERIS_TYPE":"0","OBJECT_NAME":"STARLINK-1379","GP_ID":"191037049","TLE_LINE2":"2 45549  53.0510 252.5884 0001923  57.6004 302.5186 15.42146826 90456","SEMIMAJOR_AXIS":"6817.911","OBJECT_TYPE":"PAYLOAD","INCLINATION":"53.0510","REF_FRAME":"TEME","MEAN_MOTION_DDOT":"0.0000000000000"},{"FILE":"3231740","BSTAR":"0.00005602000000","APOAPSIS":"548.838","CLASSIFICATION_TYPE":"U","LAUNCH_DATE":"2020-04-22","PERIAPSIS":"545.680","MEAN_MOTION_DOT":"0.00000552","RCS_SIZE":"LARGE","MEAN_MOTION":"15.06385160","ECCENTRICITY":"0.00022800","OBJECT_ID":"2020-025V","NORAD_CAT_ID":"45550","MEAN_ANOMALY":"296.6405","SITE":"AFETR","ELEMENT_SET_NO":"999","CENTER_NAME":"EARTH","REV_AT_EPOCH":"9037","DECAY_DATE":null,"TLE_LINE1":"1 45550U 20025V   21337.47206136  .00000552  00000-0  56020-4 0  9992","RA_OF_ASC_NODE":"257.2492","EPOCH":"2021-12-03T11:19:46.101504","ARG_OF_PERICENTER":"63.4818","INCLINATION":"53.0552","OBJECT_TYPE":"PAYLOAD","SEMIMAJOR_AXIS":"6925.394","MEAN_MOTION_DDOT":"0.0000000000000","REF_FRAME":"TEME","TIME_SYSTEM":"UTC","PERIOD":"95.593","MEAN_ELEMENT_THEORY":"SGP4","TLE_LINE2":"2 45550  53.0552 257.2492 0002280  63.4818 296.6405 15.06385160 90370","GP_ID":"191010345","EPHEMERIS_TYPE":"0","OBJECT_NAME":"STARLINK-1390","COUNTRY_CODE":"US"},{"FILE":"3231910","BSTAR":"-0.00005152100000","CLASSIFICATION_TYPE":"U","APOAPSIS":"548.787","MEAN_MOTION_DOT":"-0.00001049","LAUNCH_DATE":"2020-04-22","PERIAPSIS":"545.689","RCS_SIZE":"LARGE","MEAN_MOTION":"15.06392086","ECCENTRICITY":"0.00022370","OBJECT_ID":"2020-025W","MEAN_ANOMALY":"292.0141","NORAD_CAT_ID":"45551","SITE":"AFETR","ELEMENT_SET_NO":"999","CENTER_NAME":"EARTH","REV_AT_EPOCH":"9072","DECAY_DATE":null,"TLE_LINE1":"1 45551U 20025W   21337.87292076 -.00001049  00000-0 -51521-4 0  9990","EPOCH":"2021-12-03T20:57:00.353664","RA_OF_ASC_NODE":"235.4500","ARG_OF_PERICENTER":"68.1086","INCLINATION":"53.0525","OBJECT_TYPE":"PAYLOAD","SEMIMAJOR_AXIS":"6925.373","MEAN_MOTION_DDOT":"0.0000000000000","REF_FRAME":"TEME","TIME_SYSTEM":"UTC","PERIOD":"95.593","MEAN_ELEMENT_THEORY":"SGP4","TLE_LINE2":"2 45551  53.0525 235.4500 0002237  68.1086 292.0141 15.06392086 90721","GP_ID":"191036548","EPHEMERIS_TYPE":"0","OBJECT_NAME":"STARLINK-1294","COUNTRY_CODE":"US"}];
